{"type": "FeatureCollection", "features": [ {"type": "Feature", "properties": {"norad_id": 66687, "name": "TRANSPORTER-15X", "group": "last-30-days", "lat": 28.670408173145614, "lon": 67.34229414473464, "alt_km": 508.9431860780951, "timestamp": "2025-12-25T22:42:15.707937+00:00", "meta": {"OBJECT_NAME": "TRANSPORTER-15X", "OBJECT_ID": "2025-276X", "EPOCH": "2025-12-25T17:49:38.815968", "MEAN_MOTION": 15.1677782, "ECCENTRICITY": 0.0008092, "INCLINATION": 97.4384, "RA_OF_ASC_NODE": 71.2397, "ARG_OF_PERICENTER": 44.7786, "MEAN_ANOMALY": 315.4099, "EPHEMERIS_TYPE": 0, "CLASSIFICATION_TYPE": "U", "NORAD_CAT_ID": 66687, "ELEMENT_SET_NO": 999, "REV_AT_EPOCH": 409, "BSTAR": 0.00067169, "MEAN_MOTION_DOT": 0.00013146, "MEAN_MOTION_DDOT": 0}, "tle": {"line1": "1 66687U 25276X   25359.74281037  .00013146  00000+0  67169-3 0  9997", "line2": "2 66687  97.4384  71.2397 0008092  44.7786 315.4099 15.16777820  4092"}}, "geometry": {"type": "Point", "coordinates": [67.34229414473464, 28.670408173145614]}}, {"type": "Feature", "properties": {"norad_id": 66688, "name": "TRANSPORTER-15Y", "group": "last-30-days", "lat": 66.07346295929463, "lon": 54.33701501005666, "alt_km": 510.62494661077835, "timestamp": "2025-12-25T22:42:15.707947+00:00", "meta": {"OBJECT_NAME": "TRANSPORTER-15Y", "OBJECT_ID": "2025-276Y", "EPOCH": "2025-12-25T12:54:40.837824", "MEAN_MOTION": 15.17117879, "ECCENTRICITY": 0.0003764, "INCLINATION": 97.4426, "RA_OF_ASC_NODE": 71.0715, "ARG_OF_PERICENTER": 234.2435, "MEAN_ANOMALY": 125.8449, "EPHEMERIS_TYPE": 0, "CLASSIFICATION_TYPE": "U", "NORAD_CAT_ID": 66688, "ELEMENT_SET_NO": 999, "REV_AT_EPOCH": 406, "BSTAR": 0.00056854, "MEAN_MOTION_DOT": 0.00011216, "MEAN_MOTION_DDOT": 0}, "tle": {"line1": "1 66688U 25276Y   25359.53797266  .00011216  00000+0  56854-3 0  9996", "line2": "2 66688  97.4426  71.0715 0003764 234.2435 125.8449 15.17117879  4062"}}, "geometry": {"type": "Point", "coordinates": [54.33701501005666, 66.07346295929463]}}, {"type": "Feature", "properties": {"norad_id": 66689, "name": "TRANSPORTER-15Z", "group": "last-30-days", "lat": -60.46667951646066, "lon": -121.79903104691738, "alt_km": 440.295126272541, "timestamp": "2025-12-25T22:42:15.707956+00:00", "meta": {"OBJECT_NAME": "TRANSPORTER-15Z", "OBJECT_ID": "2025-276Z", "EPOCH": "2025-12-22T21:27:46.425312", "MEAN_MOTION": 15.23073772, "ECCENTRICITY": 0.00272271, "INCLINATION": 97.4409, "RA_OF_ASC_NODE": 68.4858, "ARG_OF_PERICENTER": 260.8557, "MEAN_ANOMALY": 98.9599, "EPHEMERIS_TYPE": 0, "CLASSIFICATION_TYPE": "U", "NORAD_CAT_ID": 66689, "ELEMENT_SET_NO": 999, "REV_AT_EPOCH": 366, "BSTAR": 0.086131248, "MEAN_MOTION_DOT": 0.02294864, "MEAN_MOTION_DDOT": 0}, "tle": {"line1": "1 66689U 25276Z   25356.89428733  .02294864  00000+0  86131-1 0  9996", "line2": "2 66689  97.4409  68.4858 0027227 260.8557  98.9599 15.23073772  3663"}}, "geometry": {"type": "Point", "coordinates": [-121.79903104691738, -60.46667951646066]}}, {"type": "Feature", "properties": {"norad_id": 66690, "name": "TRANSPORTER-15AA", "group": "last-30-days", "lat": 65.51002535896146, "lon": 54.79109981679037, "alt_km": 510.71565069795815, "timestamp": "2025-12-25T22:42:15.707968+00:00", "meta": {"OBJECT_NAME": "TRANSPORTER-15AA", "OBJECT_ID": "2025-276AA", "EPOCH": "2025-12-25T16:04:47.138592", "MEAN_MOTION": 15.17096087, "ECCENTRICITY": 0.000369, "INCLINATION": 97.4387, "RA_OF_ASC_NODE": 71.1884, "ARG_OF_PERICENTER": 234.2364, "MEAN_ANOMALY": 125.8527, "EPHEMERIS_TYPE": 0, "CLASSIFICATION_TYPE": "U", "NORAD_CAT_ID": 66690, "ELEMENT_SET_NO": 999, "REV_AT_EPOCH": 408, "BSTAR": 0.00055258, "MEAN_MOTION_DOT": 0.00010892, "MEAN_MOTION_DDOT": 0}, "tle": {"line1": "1 66690U 25276AA  25359.66999003  .00010892  00000+0  55258-3 0  9992", "line2": "2 66690  97.4387  71.1884 0003690 234.2364 125.8527 15.17096087  4084"}}, "geometry": {"type": "Point", "coordinates": [54.79109981679037, 65.51002535896146]}}, {"type": "Feature", "properties": {"norad_id": 66691, "name": "TRANSPORTER-15AB", "group": "last-30-days", "lat": 77.83343063254902, "lon": 34.15570254065443, "alt_km": 508.88938406213947, "timestamp": "2025-12-25T22:42:15.707979+00:00", "meta": {"OBJECT_NAME": "TRANSPORTER-15AB", "OBJECT_ID": "2025-276AB", "EPOCH": "2025-12-25T17:36:11.612736", "MEAN_MOTION": 15.17358301, "ECCENTRICITY": 0.0003779, "INCLINATION": 97.4413, "RA_OF_ASC_NODE": 71.2643, "ARG_OF_PERICENTER": 235.6352, "MEAN_ANOMALY": 124.4525, "EPHEMERIS_TYPE": 0, "CLASSIFICATION_TYPE": "U", "NORAD_CAT_ID": 66691, "ELEMENT_SET_NO": 999, "REV_AT_EPOCH": 409, "BSTAR": 0.00059365, "MEAN_MOTION_DOT": 0.00011796, "MEAN_MOTION_DDOT": 0}, "tle": {"line1": "1 66691U 25276AB  25359.73346774  .00011796  00000+0  59365-3 0  9999", "line2": "2 66691  97.4413  71.2643 0003779 235.6352 124.4525 15.17358301  4093"}}, "geometry": {"type": "Point", "coordinates": [34.15570254065443, 77.83343063254902]}}, {"type": "Feature", "properties": {"norad_id": 66692, "name": "TRANSPORTER-15AC", "group": "last-30-days", "lat": 78.72323376478613, "lon": -67.55887345355886, "alt_km": 507.30959557007736, "timestamp": "2025-12-25T22:42:15.707988+00:00", "meta": {"OBJECT_NAME": "TRANSPORTER-15AC", "OBJECT_ID": "2025-276AC", "EPOCH": "2025-12-25T17:31:26.445216", "MEAN_MOTION": 15.17441501, "ECCENTRICITY": 0.0001774, "INCLINATION": 97.4414, "RA_OF_ASC_NODE": 71.2724, "ARG_OF_PERICENTER": 249.4225, "MEAN_ANOMALY": 110.6818, "EPHEMERIS_TYPE": 0, "CLASSIFICATION_TYPE": "U", "NORAD_CAT_ID": 66692, "ELEMENT_SET_NO": 999, "REV_AT_EPOCH": 409, "BSTAR": 0.00033108, "MEAN_MOTION_DOT": 6.56e-05, "MEAN_MOTION_DDOT": 0}, "tle": {"line1": "1 66692U 25276AC  25359.73016719  .00006560  00000+0  33108-3 0  9993", "line2": "2 66692  97.4414  71.2724 0001774 249.4225 110.6818 15.17441501  4097"}}, "geometry": {"type": "Point", "coordinates": [-67.55887345355886, 78.72323376478613]}}, {"type": "Feature", "properties": {"norad_id": 66693, "name": "TRANSPORTER-15AD", "group": "last-30-days", "lat": 77.02901398398531, "lon": -73.98789806488399, "alt_km": 507.6380857461436, "timestamp": "2025-12-25T22:42:15.707998+00:00", "meta": {"OBJECT_NAME": "TRANSPORTER-15AD", "OBJECT_ID": "2025-276AD", "EPOCH": "2025-12-25T15:55:58.692864", "MEAN_MOTION": 15.17695956, "ECCENTRICITY": 0.0003246, "INCLINATION": 97.4368, "RA_OF_ASC_NODE": 71.1872, "ARG_OF_PERICENTER": 260.9405, "MEAN_ANOMALY": 99.1461, "EPHEMERIS_TYPE": 0, "CLASSIFICATION_TYPE": "U", "NORAD_CAT_ID": 66693, "ELEMENT_SET_NO": 999, "REV_AT_EPOCH": 408, "BSTAR": 0.00083026, "MEAN_MOTION_DOT": 0.00016695, "MEAN_MOTION_DDOT": 0}, "tle": {"line1": "1 66693U 25276AD  25359.66387376  .00016695  00000+0  83026-3 0  9990", "line2": "2 66693  97.4368  71.1872 0003246 260.9405  99.1461 15.17695956  4082"}}, "geometry": {"type": "Point", "coordinates": [-73.98789806488399, 77.02901398398531]}}, {"type": "Feature", "properties": {"norad_id": 66694, "name": "YAM-9", "group": "last-30-days", "lat": 69.01880450498352, "lon": -88.58883745576564, "alt_km": 506.90819003921297, "timestamp": "2025-12-25T22:42:15.708008+00:00", "meta": {"OBJECT_NAME": "YAM-9", "OBJECT_ID": "2025-276AE", "EPOCH": "2025-12-25T16:00:01.998720", "MEAN_MOTION": 15.17593157, "ECCENTRICITY": 0.0001539, "INCLINATION": 97.4415, "RA_OF_ASC_NODE": 71.2091, "ARG_OF_PERICENTER": 231.6095, "MEAN_ANOMALY": 152.9503, "EPHEMERIS_TYPE": 0, "CLASSIFICATION_TYPE": "U", "NORAD_CAT_ID": 66694, "ELEMENT_SET_NO": 999, "REV_AT_EPOCH": 130, "BSTAR": 0.0023687, "MEAN_MOTION_DOT": 0.0004781, "MEAN_MOTION_DDOT": 0}, "tle": {"line1": "1 66694U 25276AE  25359.66668980  .00047810  00000+0  23687-2 0  9993", "line2": "2 66694  97.4415  71.2091 0001539 231.6095 152.9503 15.17593157  1300"}}, "geometry": {"type": "Point", "coordinates": [-88.58883745576564, 69.01880450498352]}}, {"type": "Feature", "properties": {"norad_id": 66695, "name": "IRIDE FM1", "group": "last-30-days", "lat": 4.818070883054512, "lon": -107.86255623819208, "alt_km": 512.3240165424413, "timestamp": "2025-12-25T22:42:15.708018+00:00", "meta": {"OBJECT_NAME": "IRIDE FM1", "OBJECT_ID": "2025-276AF", "EPOCH": "2025-12-25T18:00:02.000160", "MEAN_MOTION": 15.18330328, "ECCENTRICITY": 0.0001729, "INCLINATION": 97.4396, "RA_OF_ASC_NODE": 71.3136, "ARG_OF_PERICENTER": 145.166, "MEAN_ANOMALY": 39.2388, "EPHEMERIS_TYPE": 0, "CLASSIFICATION_TYPE": "U", "NORAD_CAT_ID": 66695, "ELEMENT_SET_NO": 999, "REV_AT_EPOCH": 130, "BSTAR": -0.0010777, "MEAN_MOTION_DOT": -0.00022102, "MEAN_MOTION_DDOT": 0}, "tle": {"line1": "1 66695U 25276AF  25359.75002315 -.00022102  00000+0 -10777-2 0  9993", "line2": "2 66695  97.4396  71.3136 0001729 145.1660  39.2388 15.18330328  1306"}}, "geometry": {"type": "Point", "coordinates": [-107.86255623819208, 4.818070883054512]}}, {"type": "Feature", "properties": {"norad_id": 66696, "name": "IRIDE FM2", "group": "last-30-days", "lat": 81.24396096620677, "lon": -50.51137609478848, "alt_km": 507.6883507130178, "timestamp": "2025-12-25T22:42:15.708028+00:00", "meta": {"OBJECT_NAME": "IRIDE FM2", "OBJECT_ID": "2025-276AG", "EPOCH": "2025-12-25T17:32:27.573216", "MEAN_MOTION": 15.17454411, "ECCENTRICITY": 0.0002493, "INCLINATION": 97.4383, "RA_OF_ASC_NODE": 71.2567, "ARG_OF_PERICENTER": 253.0773, "MEAN_ANOMALY": 107.0187, "EPHEMERIS_TYPE": 0, "CLASSIFICATION_TYPE": "U", "NORAD_CAT_ID": 66696, "ELEMENT_SET_NO": 999, "REV_AT_EPOCH": 409, "BSTAR": 0.00057943, "MEAN_MOTION_DOT": 0.00011542, "MEAN_MOTION_DDOT": 0}, "tle": {"line1": "1 66696U 25276AG  25359.73087469  .00011542  00000+0  57943-3 0  9996", "line2": "2 66696  97.4383  71.2567 0002493 253.0773 107.0187 15.17454411  4092"}}, "geometry": {"type": "Point", "coordinates": [-50.51137609478848, 81.24396096620677]}}]}